ONEWEB-0393             
1 50473U 21132E   24076.81658068  .00000061  00000+0  12288-3 0  9999
2 50473  87.9264 169.4338 0002157 113.6502 246.4856 13.17670141111104
ONEWEB-0394             
1 50474U 21132F   24076.67244268  .00000000  00000+0 -32491-4 0  9990
2 50474  87.9186 139.1809 0002067  97.7038 262.4329 13.18687938113198
ONEWEB-0395             
1 50475U 21132G   24076.84082736  .00000131  00000+0  33327-3 0  9992
2 50475  87.9038 184.6062 0001989 112.1203 248.0136 13.11414727107937
ONEWEB-0396             
1 50476U 21132H   24076.66612256 -.00000377  00000+0 -98851-3 0  9996
2 50476  87.9197 139.1768 0002297 100.3558 259.7833 13.18684626113234
ONEWEB-0397             
1 50477U 21132J   24076.68035219  .00000037  00000+0  60363-4 0  9996
2 50477  87.9195 139.1749 0002284 101.4607 258.6781 13.18686729113219
ONEWEB-0398             
1 50478U 21132K   24076.80838338  .00000140  00000+0  35969-3 0  9992
2 50478  87.9036 184.5959 0001882 121.4141 238.7171 13.11417537109106
ONEWEB-0399             
1 50479U 21132L   24076.79374017 -.00000390  00000+0 -11363-2 0  9990
2 50479  87.9036 184.6141 0002141  97.3890 262.7481 13.11417894107815
ONEWEB-0400             
1 50480U 21132M   24076.73567464  .00000082  00000+0  17579-3 0  9998
2 50480  87.9191 139.1704 0001829 105.7117 254.4217 13.18686866113217
